start=new Date('2022-11-28T00:00:00.000Z').valueOf();
sats=[{"OBJECT_ID":"2021-005BM","EPHEMERIS_TYPE":"0","CLASSIFICATION_TYPE":"U","ELEMENT_SET_NO":"999","MEAN_ANOMALY":"287.3331","OBJECT_NAME":"STARLINK-2135","REF_FRAME":"TEME","RCS_SIZE":"LARGE","ARG_OF_PERICENTER":"72.7818","BSTAR":"0.00000545920000","TLE_LINE2":"2 47408  53.0545  10.4347 0001463  72.7818 287.3331 15.06393354102877","MEAN_MOTION_DOT":"-0.00000200","INCLINATION":"53.0545","LAUNCH_DATE":"2021-01-20","MEAN_MOTION":"15.06393354","ECCENTRICITY":"0.00014630","PERIAPSIS":"546.221","DECAY_DATE":null,"SITE":"AFETR","MEAN_MOTION_DDOT":"0.0000000000000","SEMIMAJOR_AXIS":"6925.369","NORAD_CAT_ID":"47408","TLE_LINE1":"1 47408U 21005BM  22331.51804096 -.00000200  00000-0  54592-5 0  9998","FILE":"3671921","PERIOD":"95.593","EPOCH":"2022-11-27T12:25:58.738944","TIME_SYSTEM":"UTC","MEAN_ELEMENT_THEORY":"SGP4","APOAPSIS":"548.247","REV_AT_EPOCH":"10287","OBJECT_TYPE":"PAYLOAD","CENTER_NAME":"EARTH","COUNTRY_CODE":"US","GP_ID":"218989071","RA_OF_ASC_NODE":"10.4347"},{"EPOCH":"2022-11-27T18:56:05.785440","TIME_SYSTEM":"UTC","APOAPSIS":"548.454","MEAN_ELEMENT_THEORY":"SGP4","REV_AT_EPOCH":"10038","OBJECT_TYPE":"PAYLOAD","CENTER_NAME":"EARTH","COUNTRY_CODE":"US","GP_ID":"218989586","RA_OF_ASC_NODE":"349.2168","DECAY_DATE":null,"SITE":"AFETR","MEAN_MOTION_DDOT":"0.0000000000000","SEMIMAJOR_AXIS":"6925.349","NORAD_CAT_ID":"47548","TLE_LINE1":"1 47548U 21009A   22331.78895585 -.00001019  00000-0 -49529-4 0  9992","FILE":"3671921","PERIOD":"95.592","BSTAR":"-0.00004952900000","TLE_LINE2":"2 47548  53.0550 349.2168 0001791  55.2139 304.9019 15.06399954100383","MEAN_MOTION_DOT":"-0.00001019","INCLINATION":"53.0550","LAUNCH_DATE":"2021-02-04","MEAN_MOTION":"15.06399954","ECCENTRICITY":"0.00017910","PERIAPSIS":"545.973","OBJECT_ID":"2021-009A","EPHEMERIS_TYPE":"0","CLASSIFICATION_TYPE":"U","ELEMENT_SET_NO":"999","MEAN_ANOMALY":"304.9019","OBJECT_NAME":"STARLINK-1782","REF_FRAME":"TEME","RCS_SIZE":"LARGE","ARG_OF_PERICENTER":"55.2139"},{"ELEMENT_SET_NO":"999","CLASSIFICATION_TYPE":"U","EPHEMERIS_TYPE":"0","OBJECT_ID":"2021-009B","MEAN_ANOMALY":"300.4607","REF_FRAME":"TEME","OBJECT_NAME":"STARLINK-1806","ARG_OF_PERICENTER":"59.6547","RCS_SIZE":"LARGE","MEAN_MOTION_DOT":"0.00000218","TLE_LINE2":"2 47549  53.0560 349.2262 0001669  59.6547 300.4607 15.06396184100381","BSTAR":"0.00003352400000","ECCENTRICITY":"0.00016690","MEAN_MOTION":"15.06396184","LAUNCH_DATE":"2021-02-04","INCLINATION":"53.0560","PERIAPSIS":"546.069","SEMIMAJOR_AXIS":"6925.360","SITE":"AFETR","DECAY_DATE":null,"MEAN_MOTION_DDOT":"0.0000000000000","TLE_LINE1":"1 47549U 21009B   22331.78527210  .00000218  00000-0  33524-4 0  9996","NORAD_CAT_ID":"47549","PERIOD":"95.592","FILE":"3671921","REV_AT_EPOCH":"10038","APOAPSIS":"548.381","MEAN_ELEMENT_THEORY":"SGP4","TIME_SYSTEM":"UTC","EPOCH":"2022-11-27T18:50:47.509440","CENTER_NAME":"EARTH","OBJECT_TYPE":"PAYLOAD","RA_OF_ASC_NODE":"349.2262","COUNTRY_CODE":"US","GP_ID":"218989337"},{"PERIAPSIS":"546.074","INCLINATION":"53.0571","LAUNCH_DATE":"2021-02-04","MEAN_MOTION":"15.06396348","ECCENTRICITY":"0.00016620","BSTAR":"-0.00000173050000","TLE_LINE2":"2 47550  53.0571 339.4569 0001662  58.9245 301.1907 15.06396348100514","MEAN_MOTION_DOT":"-0.00000307","RCS_SIZE":"LARGE","ARG_OF_PERICENTER":"58.9245","OBJECT_NAME":"STARLINK-1909","REF_FRAME":"TEME","MEAN_ANOMALY":"301.1907","OBJECT_ID":"2021-009C","EPHEMERIS_TYPE":"0","CLASSIFICATION_TYPE":"U","ELEMENT_SET_NO":"999","COUNTRY_CODE":"US","GP_ID":"218990588","RA_OF_ASC_NODE":"339.4569","OBJECT_TYPE":"PAYLOAD","CENTER_NAME":"EARTH","EPOCH":"2022-11-27T17:32:29.899104","TIME_SYSTEM":"UTC","MEAN_ELEMENT_THEORY":"SGP4","APOAPSIS":"548.376","REV_AT_EPOCH":"10051","PERIOD":"95.592","FILE":"3671921","NORAD_CAT_ID":"47550","TLE_LINE1":"1 47550U 21009C   22331.73090161 -.00000307  00000-0 -17305-5 0  9994","DECAY_DATE":null,"SITE":"AFETR","MEAN_MOTION_DDOT":"0.0000000000000","SEMIMAJOR_AXIS":"6925.360"},{"FILE":"3671921","PERIOD":"95.593","DECAY_DATE":null,"SITE":"AFETR","MEAN_MOTION_DDOT":"0.0000000000000","SEMIMAJOR_AXIS":"6925.393","NORAD_CAT_ID":"47551","TLE_LINE1":"1 47551U 21009D   22331.79173395 -.00000746  00000-0 -31202-4 0  9990","COUNTRY_CODE":"US","GP_ID":"218990838","RA_OF_ASC_NODE":"359.2061","EPOCH":"2022-11-27T19:00:05.813280","TIME_SYSTEM":"UTC","MEAN_ELEMENT_THEORY":"SGP4","APOAPSIS":"548.381","REV_AT_EPOCH":"10024","OBJECT_TYPE":"PAYLOAD","CENTER_NAME":"EARTH","OBJECT_NAME":"STARLINK-1938","REF_FRAME":"TEME","RCS_SIZE":"LARGE","ARG_OF_PERICENTER":"56.5548","OBJECT_ID":"2021-009D","CLASSIFICATION_TYPE":"U","EPHEMERIS_TYPE":"0","ELEMENT_SET_NO":"999","MEAN_ANOMALY":"303.5596","PERIAPSIS":"546.136","BSTAR":"-0.00003120200000","MEAN_MOTION_DOT":"-0.00000746","TLE_LINE2":"2 47551  53.0548 359.2061 0001621  56.5548 303.5596 15.06385419100248","INCLINATION":"53.0548","LAUNCH_DATE":"2021-02-04","MEAN_MOTION":"15.06385419","ECCENTRICITY":"0.00016210"},{"CENTER_NAME":"EARTH","OBJECT_TYPE":"PAYLOAD","TIME_SYSTEM":"UTC","EPOCH":"2022-11-27T11:09:00.676224","REV_AT_EPOCH":"10033","MEAN_ELEMENT_THEORY":"SGP4","APOAPSIS":"548.348","COUNTRY_CODE":"US","GP_ID":"218957587","RA_OF_ASC_NODE":"350.6676","NORAD_CAT_ID":"47552","TLE_LINE1":"1 47552U 21009E   22331.46459116  .00000331  00000-0  41139-4 0  9991","SITE":"AFETR","DECAY_DATE":null,"MEAN_MOTION_DDOT":"0.0000000000000","SEMIMAJOR_AXIS":"6925.344","FILE":"3671616","PERIOD":"95.592","LAUNCH_DATE":"2021-02-04","INCLINATION":"53.0545","ECCENTRICITY":"0.00016450","MEAN_MOTION":"15.06401485","BSTAR":"0.00004113900000","MEAN_MOTION_DOT":"0.00000331","TLE_LINE2":"2 47552  53.0545 350.6676 0001645  62.5200 297.5956 15.06401485100335","PERIAPSIS":"546.070","MEAN_ANOMALY":"297.5956","EPHEMERIS_TYPE":"0","CLASSIFICATION_TYPE":"U","OBJECT_ID":"2021-009E","ELEMENT_SET_NO":"999","ARG_OF_PERICENTER":"62.5200","RCS_SIZE":"LARGE","OBJECT_NAME":"STARLINK-1940","REF_FRAME":"TEME"},{"EPHEMERIS_TYPE":"0","CLASSIFICATION_TYPE":"U","OBJECT_ID":"2021-009G","ELEMENT_SET_NO":"999","MEAN_ANOMALY":"286.0646","OBJECT_NAME":"STARLINK-1953","REF_FRAME":"TEME","ARG_OF_PERICENTER":"74.0506","RCS_SIZE":"LARGE","BSTAR":"0.00025667000000","TLE_LINE2":"2 47554  53.0562   9.1393 0001481  74.0506 286.0646 15.06366951100105","MEAN_MOTION_DOT":"0.00003540","LAUNCH_DATE":"2021-02-04","INCLINATION":"53.0562","ECCENTRICITY":"0.00014810","MEAN_MOTION":"15.06366951","PERIAPSIS":"546.289","MEAN_MOTION_DDOT":"0.0000000000000","DECAY_DATE":null,"SITE":"AFETR","SEMIMAJOR_AXIS":"6925.450","NORAD_CAT_ID":"47554","TLE_LINE1":"1 47554U 21009G   22331.80186654  .00003540  00000-0  25667-3 0  9997","FILE":"3671921","PERIOD":"95.594","TIME_SYSTEM":"UTC","EPOCH":"2022-11-27T19:14:41.269056","REV_AT_EPOCH":"10010","APOAPSIS":"548.341","MEAN_ELEMENT_THEORY":"SGP4","CENTER_NAME":"EARTH","OBJECT_TYPE":"PAYLOAD","GP_ID":"218989837","COUNTRY_CODE":"US","RA_OF_ASC_NODE":"9.1393"},{"RCS_SIZE":"LARGE","ARG_OF_PERICENTER":"51.5884","REF_FRAME":"TEME","OBJECT_NAME":"STARLINK-1954","MEAN_ANOMALY":"308.5268","ELEMENT_SET_NO":"999","OBJECT_ID":"2021-009H","CLASSIFICATION_TYPE":"U","EPHEMERIS_TYPE":"0","PERIAPSIS":"546.132","MEAN_MOTION":"15.06340644","ECCENTRICITY":"0.00018240","INCLINATION":"53.0560","LAUNCH_DATE":"2021-02-04","MEAN_MOTION_DOT":"0.00007703","TLE_LINE2":"2 47555  53.0560 359.2531 0001824  51.5884 308.5268 15.06340644100243","BSTAR":"0.00053629000000","FILE":"3671921","PERIOD":"95.596","TLE_LINE1":"1 47555U 21009H   22331.77699265  .00007703  00000-0  53629-3 0  9995","NORAD_CAT_ID":"47555","SEMIMAJOR_AXIS":"6925.530","DECAY_DATE":null,"SITE":"AFETR","MEAN_MOTION_DDOT":"0.0000000000000","RA_OF_ASC_NODE":"359.2531","GP_ID":"218990089","COUNTRY_CODE":"US","OBJECT_TYPE":"PAYLOAD","CENTER_NAME":"EARTH","APOAPSIS":"548.659","MEAN_ELEMENT_THEORY":"SGP4","REV_AT_EPOCH":"10024","EPOCH":"2022-11-27T18:38:52.164960","TIME_SYSTEM":"UTC"},{"OBJECT_TYPE":"PAYLOAD","CENTER_NAME":"EARTH","MEAN_ELEMENT_THEORY":"SGP4","APOAPSIS":"548.230","REV_AT_EPOCH":"9993","TIME_SYSTEM":"UTC","EPOCH":"2022-11-27T14:42:39.140928","RA_OF_ASC_NODE":"19.9957","COUNTRY_CODE":"US","GP_ID":"218990339","TLE_LINE1":"1 47556U 21009J   22331.61295302 -.00003403  00000-0 -20969-3 0  9999","NORAD_CAT_ID":"47556","SEMIMAJOR_AXIS":"6925.378","DECAY_DATE":null,"SITE":"AFETR","MEAN_MOTION_DDOT":"0.0000000000000","FILE":"3671921","PERIOD":"95.593","MEAN_MOTION":"15.06390261","ECCENTRICITY":"0.00014240","INCLINATION":"53.0532","LAUNCH_DATE":"2021-02-04","MEAN_MOTION_DOT":"-0.00003403","TLE_LINE2":"2 47556  53.0532  19.9957 0001424  74.9209 285.1937 15.06390261 99937","BSTAR":"-0.00020969000000","PERIAPSIS":"546.257","MEAN_ANOMALY":"285.1937","ELEMENT_SET_NO":"999","OBJECT_ID":"2021-009J","CLASSIFICATION_TYPE":"U","EPHEMERIS_TYPE":"0","RCS_SIZE":"LARGE","ARG_OF_PERICENTER":"74.9209","REF_FRAME":"TEME","OBJECT_NAME":"STARLINK-1955"},{"MEAN_ANOMALY":"298.9028","OBJECT_ID":"2021-009K","CLASSIFICATION_TYPE":"U","EPHEMERIS_TYPE":"0","ELEMENT_SET_NO":"999","RCS_SIZE":"LARGE","ARG_OF_PERICENTER":"61.2148","OBJECT_NAME":"STARLINK-1956","REF_FRAME":"TEME","INCLINATION":"53.0558","LAUNCH_DATE":"2021-02-04","MEAN_MOTION":"15.06389178","ECCENTRICITY":"0.00018680","BSTAR":"0.00007806900000","TLE_LINE2":"2 47557  53.0558  18.9593 0001868  61.2148 298.9028 15.06389178 99976","MEAN_MOTION_DOT":"0.00000881","PERIAPSIS":"545.953","NORAD_CAT_ID":"47557","TLE_LINE1":"1 47557U 21009K   22331.84150125  .00000881  00000-0  78069-4 0  9998","DECAY_DATE":null,"SITE":"AFETR","MEAN_MOTION_DDOT":"0.0000000000000","SEMIMAJOR_AXIS":"6925.382","FILE":"3671921","PERIOD":"95.593","OBJECT_TYPE":"PAYLOAD","CENTER_NAME":"EARTH","TIME_SYSTEM":"UTC","EPOCH":"2022-11-27T20:11:45.708000","MEAN_ELEMENT_THEORY":"SGP4","APOAPSIS":"548.540","REV_AT_EPOCH":"9997","COUNTRY_CODE":"US","GP_ID":"218989587","RA_OF_ASC_NODE":"18.9593"}];
